{
  "type": "FeatureCollection",
  "features": [
    {
      "type": "Feature",
      "properties": {
        "norad_id": 2807,
        "name": "OPS 7218 (TRANSIT 16)",
        "group": "nnss",
        "lat": 58.626060422937385,
        "lon": -5.217037593033774,
        "alt_km": 1059.564022226753,
        "timestamp": "2025-12-05T18:53:13.550498+00:00",
        "meta_object_name": "OPS 7218 (TRANSIT 16)",
        "meta_object_id": "1967-048A",
        "meta_epoch": "2025-12-05T07:59:01.323744",
        "meta_mean_motion": 13.50720137,
        "meta_eccentricity": 0.00215888,
        "meta_inclination": 89.6734,
        "meta_ra_of_asc_node": 354.262,
        "meta_arg_of_pericenter": 134.0098,
        "meta_mean_anomaly": 237.1093,
        "meta_ephemeris_type": 0,
        "meta_classification_type": "U",
        "meta_norad_cat_id": 2807,
        "meta_element_set_no": 999,
        "meta_rev_at_epoch": 88176,
        "meta_bstar": 0.00025304454,
        "meta_mean_motion_dot": 1.73e-06,
        "meta_mean_motion_ddot": 0,
        "tle_line1": "1 02807U 67048A   25339.33265421  .00000173  00000+0  25304-3 0  9997",
        "tle_line2": "2 02807  89.6734 354.2620 0021588 134.0098 237.1093 13.50720137881761"
      },
      "geometry": {
        "type": "Point",
        "coordinates": [
          -5.217037593033774,
          58.626060422937385
        ]
      }
    },
    {
      "type": "Feature",
      "properties": {
        "norad_id": 2965,
        "name": "OPS 4947 (TRANSIT 17)",
        "group": "nnss",
        "lat": 55.24720800215978,
        "lon": 26.04693164965622,
        "alt_km": 1086.3985939533823,
        "timestamp": "2025-12-05T18:53:13.550520+00:00",
        "meta_object_name": "OPS 4947 (TRANSIT 17)",
        "meta_object_id": "1967-092A",
        "meta_epoch": "2025-12-05T04:43:52.267008",
        "meta_mean_motion": 13.53450812,
        "meta_eccentricity": 0.00458383,
        "meta_inclination": 89.2505,
        "meta_ra_of_asc_node": 25.0107,
        "meta_arg_of_pericenter": 257.1744,
        "meta_mean_anomaly": 165.7724,
        "meta_ephemeris_type": 0,
        "meta_classification_type": "U",
        "meta_norad_cat_id": 2965,
        "meta_element_set_no": 999,
        "meta_rev_at_epoch": 86995,
        "meta_bstar": 0.00029199514,
        "meta_mean_motion_dot": 2.08e-06,
        "meta_mean_motion_ddot": 0,
        "tle_line1": "1 02965U 67092A   25339.19713272  .00000208  00000+0  29200-3 0  9995",
        "tle_line2": "2 02965  89.2505  25.0107 0045838 257.1744 165.7724 13.53450812869957"
      },
      "geometry": {
        "type": "Point",
        "coordinates": [
          26.04693164965622,
          55.24720800215978
        ]
      }
    },
    {
      "type": "Feature",
      "properties": {
        "norad_id": 3133,
        "name": "OPS 7034 (TRANSIT 18)",
        "group": "nnss",
        "lat": -72.30645126776582,
        "lon": 93.5343950097442,
        "alt_km": 1048.78614891309,
        "timestamp": "2025-12-05T18:53:13.550534+00:00",
        "meta_object_name": "OPS 7034 (TRANSIT 18)",
        "meta_object_id": "1968-012A",
        "meta_epoch": "2025-12-05T07:32:51.171360",
        "meta_mean_motion": 13.51563233,
        "meta_eccentricity": 0.00731583,
        "meta_inclination": 90.0271,
        "meta_ra_of_asc_node": 273.6181,
        "meta_arg_of_pericenter": 190.7388,
        "meta_mean_anomaly": 283.2365,
        "meta_ephemeris_type": 0,
        "meta_classification_type": "U",
        "meta_norad_cat_id": 3133,
        "meta_element_set_no": 999,
        "meta_rev_at_epoch": 56818,
        "meta_bstar": 0.00025439298,
        "meta_mean_motion_dot": 1.78e-06,
        "meta_mean_motion_ddot": 0,
        "tle_line1": "1 03133U 68012A   25339.31448115  .00000178  00000+0  25439-3 0  9997",
        "tle_line2": "2 03133  90.0271 273.6181 0073158 190.7388 283.2365 13.51563233568188"
      },
      "geometry": {
        "type": "Point",
        "coordinates": [
          93.5343950097442,
          -72.30645126776582
        ]
      }
    },
    {
      "type": "Feature",
      "properties": {
        "norad_id": 4507,
        "name": "NNSS 19 (TRANSIT 19)",
        "group": "nnss",
        "lat": -47.39237792242654,
        "lon": 54.52278637548864,
        "alt_km": 1064.085047228643,
        "timestamp": "2025-12-05T18:53:13.550546+00:00",
        "meta_object_name": "NNSS 19 (TRANSIT 19)",
        "meta_object_id": "1970-067A",
        "meta_epoch": "2025-12-05T07:05:11.359968",
        "meta_mean_motion": 13.51312141,
        "meta_eccentricity": 0.01710451,
        "meta_inclination": 90.0056,
        "meta_ra_of_asc_node": 234.5286,
        "meta_arg_of_pericenter": 315.1116,
        "meta_mean_anomaly": 43.6307,
        "meta_ephemeris_type": 0,
        "meta_classification_type": "U",
        "meta_norad_cat_id": 4507,
        "meta_element_set_no": 999,
        "meta_rev_at_epoch": 72121,
        "meta_bstar": 0.00034478586,
        "meta_mean_motion_dot": 2.53e-06,
        "meta_mean_motion_ddot": 0,
        "tle_line1": "1 04507U 70067A   25339.29527037  .00000253  00000+0  34479-3 0  9992",
        "tle_line2": "2 04507  90.0056 234.5286 0171045 315.1116  43.6307 13.51312141721212"
      },
      "geometry": {
        "type": "Point",
        "coordinates": [
          54.52278637548864,
          -47.39237792242654
        ]
      }
    },
    {
      "type": "Feature",
      "properties": {
        "norad_id": 6909,
        "name": "NNSS 20 (TRANSIT 20)",
        "group": "nnss",
        "lat": 19.250007165740314,
        "lon": 75.10792762923761,
        "alt_km": 938.6255500716716,
        "timestamp": "2025-12-05T18:53:13.550557+00:00",
        "meta_object_name": "NNSS 20 (TRANSIT 20)",
        "meta_object_id": "1973-081A",
        "meta_epoch": "2025-12-05T07:36:58.150944",
        "meta_mean_motion": 13.71429296,
        "meta_eccentricity": 0.01565202,
        "meta_inclination": 89.8558,
        "meta_ra_of_asc_node": 255.1654,
        "meta_arg_of_pericenter": 100.2959,
        "meta_mean_anomaly": 261.5893,
        "meta_ephemeris_type": 0,
        "meta_classification_type": "U",
        "meta_norad_cat_id": 6909,
        "meta_element_set_no": 999,
        "meta_rev_at_epoch": 80259,
        "meta_bstar": 0.00036019381,
        "meta_mean_motion_dot": 3.65e-06,
        "meta_mean_motion_ddot": 0,
        "tle_line1": "1 06909U 73081A   25339.31733971  .00000365  00000+0  36019-3 0  9994",
        "tle_line2": "2 06909  89.8558 255.1654 0156520 100.2959 261.5893 13.71429296802594"
      },
      "geometry": {
        "type": "Point",
        "coordinates": [
          75.10792762923761,
          19.250007165740314
        ]
      }
    },
    {
      "type": "Feature",
      "properties": {
        "norad_id": 10457,
        "name": "TRANSAT",
        "group": "nnss",
        "lat": -66.26846947614864,
        "lon": 78.04292713994833,
        "alt_km": 1081.4472845057835,
        "timestamp": "2025-12-05T18:53:13.550568+00:00",
        "meta_object_name": "TRANSAT",
        "meta_object_id": "1977-106A",
        "meta_epoch": "2025-12-05T07:01:17.119200",
        "meta_mean_motion": 13.48941891,
        "meta_eccentricity": 0.00247154,
        "meta_inclination": 89.6484,
        "meta_ra_of_asc_node": 78.8607,
        "meta_arg_of_pericenter": 211.4141,
        "meta_mean_anomaly": 202.5941,
        "meta_ephemeris_type": 0,
        "meta_classification_type": "U",
        "meta_norad_cat_id": 10457,
        "meta_element_set_no": 999,
        "meta_rev_at_epoch": 36643,
        "meta_bstar": 0.00021730397,
        "meta_mean_motion_dot": 1.46e-06,
        "meta_mean_motion_ddot": 0,
        "tle_line1": "1 10457U 77106A   25339.29255925  .00000146  00000+0  21730-3 0  9995",
        "tle_line2": "2 10457  89.6484  78.8607 0024715 211.4141 202.5941 13.48941891366430"
      },
      "geometry": {
        "type": "Point",
        "coordinates": [
          78.04292713994833,
          -66.26846947614864
        ]
      }
    },
    {
      "type": "Feature",
      "properties": {
        "norad_id": 12458,
        "name": "NOVA 1",
        "group": "nnss",
        "lat": 63.421364429460006,
        "lon": -88.81173869740326,
        "alt_km": 1154.3524471914825,
        "timestamp": "2025-12-05T18:53:13.550578+00:00",
        "meta_object_name": "NOVA 1",
        "meta_object_id": "1981-044A",
        "meta_epoch": "2025-12-05T07:29:41.224416",
        "meta_mean_motion": 13.23277288,
        "meta_eccentricity": 0.00156331,
        "meta_inclination": 89.8524,
        "meta_ra_of_asc_node": 91.4902,
        "meta_arg_of_pericenter": 122.2949,
        "meta_mean_anomaly": 254.282,
        "meta_ephemeris_type": 0,
        "meta_classification_type": "U",
        "meta_norad_cat_id": 12458,
        "meta_element_set_no": 999,
        "meta_rev_at_epoch": 15088,
        "meta_bstar": 0.00015716189,
        "meta_mean_motion_dot": 7.6e-07,
        "meta_mean_motion_ddot": 0,
        "tle_line1": "1 12458U 81044A   25339.31228269  .00000076  00000+0  15716-3 0  9997",
        "tle_line2": "2 12458  89.8524  91.4902 0015633 122.2949 254.2820 13.23277288150888"
      },
      "geometry": {
        "type": "Point",
        "coordinates": [
          -88.81173869740326,
          63.421364429460006
        ]
      }
    }
  ]
}